start=new Date('2022-04-19T00:00:00.000Z').valueOf();
sats=[{"PERIOD":"92.966","OBJECT_ID":"2022-005B","MEAN_ELEMENT_THEORY":"SGP4","RCS_SIZE":"LARGE","TLE_LINE2":"2 51105  53.2159 191.5737 0002024  40.2207 177.4074 15.48955370  3690","PERIAPSIS":"418.407","REF_FRAME":"TEME","MEAN_ANOMALY":"177.4074","FILE":"3407402","APOAPSIS":"421.159","BSTAR":"-0.00043784000000","INCLINATION":"53.2159","MEAN_MOTION_DDOT":"0.0000000000000","MEAN_MOTION":"15.48955370","ARG_OF_PERICENTER":"40.2207","REV_AT_EPOCH":"369","ELEMENT_SET_NO":"999","COUNTRY_CODE":"US","TLE_LINE1":"1 51105U 22005B   22108.91667824 -.00024422  00000-0 -43784-3 0  9992","OBJECT_TYPE":"PAYLOAD","MEAN_MOTION_DOT":"-0.00024422","DECAY_DATE":null,"EPOCH":"2022-04-18T22:00:00.999936","CENTER_NAME":"EARTH","OBJECT_NAME":"STARLINK-3350","GP_ID":"201582728","TIME_SYSTEM":"UTC","CLASSIFICATION_TYPE":"U","SEMIMAJOR_AXIS":"6797.918","EPHEMERIS_TYPE":"0","LAUNCH_DATE":"2022-01-19","SITE":"AFETR","NORAD_CAT_ID":"51105","RA_OF_ASC_NODE":"191.5737","ECCENTRICITY":"0.00020240"},{"MEAN_ELEMENT_THEORY":"SGP4","PERIOD":"92.996","OBJECT_ID":"2022-005C","PERIAPSIS":"420.045","REF_FRAME":"TEME","TLE_LINE2":"2 51106  53.2165 191.5761 0001794  31.2175  97.8846 15.48448832  3661","RCS_SIZE":"LARGE","FILE":"3407402","MEAN_ANOMALY":"97.8846","INCLINATION":"53.2165","APOAPSIS":"422.485","BSTAR":"-0.01071300000000","ELEMENT_SET_NO":"999","COUNTRY_CODE":"US","ARG_OF_PERICENTER":"31.2175","REV_AT_EPOCH":"366","MEAN_MOTION_DDOT":"0.0000000000000","MEAN_MOTION":"15.48448832","CENTER_NAME":"EARTH","EPOCH":"2022-04-18T22:00:00.999936","DECAY_DATE":null,"MEAN_MOTION_DOT":"-0.00540240","TLE_LINE1":"1 51106U 22005C   22108.91667824 -.00540240  00000-0 -10713-1 0  9998","OBJECT_TYPE":"PAYLOAD","EPHEMERIS_TYPE":"0","LAUNCH_DATE":"2022-01-19","TIME_SYSTEM":"UTC","CLASSIFICATION_TYPE":"U","SEMIMAJOR_AXIS":"6799.400","OBJECT_NAME":"STARLINK-3176","GP_ID":"201581476","ECCENTRICITY":"0.00017940","RA_OF_ASC_NODE":"191.5761","SITE":"AFETR","NORAD_CAT_ID":"51106"},{"PERIAPSIS":"512.356","REF_FRAME":"TEME","RCS_SIZE":"LARGE","TLE_LINE2":"2 51107  53.2174 197.3410 0001656  42.9806 274.2677 15.17468323  3648","MEAN_ELEMENT_THEORY":"SGP4","PERIOD":"94.895","OBJECT_ID":"2022-005D","APOAPSIS":"514.638","BSTAR":"-0.03847500000000","INCLINATION":"53.2174","FILE":"3407402","MEAN_ANOMALY":"274.2677","DECAY_DATE":null,"EPOCH":"2022-04-18T22:00:00.999936","CENTER_NAME":"EARTH","TLE_LINE1":"1 51107U 22005D   22108.91667824 -.00726311  00000-0 -38475-1 0  9999","OBJECT_TYPE":"PAYLOAD","MEAN_MOTION_DOT":"-0.00726311","ARG_OF_PERICENTER":"42.9806","REV_AT_EPOCH":"364","ELEMENT_SET_NO":"999","COUNTRY_CODE":"US","MEAN_MOTION_DDOT":"0.0000000000000","MEAN_MOTION":"15.17468323","ECCENTRICITY":"0.00016560","SITE":"AFETR","NORAD_CAT_ID":"51107","RA_OF_ASC_NODE":"197.3410","EPHEMERIS_TYPE":"0","LAUNCH_DATE":"2022-01-19","OBJECT_NAME":"STARLINK-3368","GP_ID":"201581726","TIME_SYSTEM":"UTC","CLASSIFICATION_TYPE":"U","SEMIMAJOR_AXIS":"6891.632"},{"TLE_LINE2":"2 51108  53.2155 191.5720 0001861  43.9910 181.5303 15.49006468  3697","RCS_SIZE":"LARGE","REF_FRAME":"TEME","PERIAPSIS":"418.368","OBJECT_ID":"2022-005E","PERIOD":"92.963","MEAN_ELEMENT_THEORY":"SGP4","INCLINATION":"53.2155","BSTAR":"-0.00170530000000","APOAPSIS":"420.898","MEAN_ANOMALY":"181.5303","FILE":"3407402","MEAN_MOTION_DOT":"-0.00093176","OBJECT_TYPE":"PAYLOAD","TLE_LINE1":"1 51108U 22005E   22108.91667824 -.00093176  00000-0 -17053-2 0  9996","EPOCH":"2022-04-18T22:00:00.999936","CENTER_NAME":"EARTH","DECAY_DATE":null,"MEAN_MOTION":"15.49006468","MEAN_MOTION_DDOT":"0.0000000000000","COUNTRY_CODE":"US","ELEMENT_SET_NO":"999","REV_AT_EPOCH":"369","ARG_OF_PERICENTER":"43.9910","RA_OF_ASC_NODE":"191.5720","NORAD_CAT_ID":"51108","SITE":"AFETR","ECCENTRICITY":"0.00018610","SEMIMAJOR_AXIS":"6797.768","TIME_SYSTEM":"UTC","CLASSIFICATION_TYPE":"U","GP_ID":"201581977","OBJECT_NAME":"STARLINK-3362","LAUNCH_DATE":"2022-01-19","EPHEMERIS_TYPE":"0"},{"RCS_SIZE":"LARGE","TLE_LINE2":"2 51109  53.2174 192.3487 0001717  36.3224  73.9422 15.44376202  3677","REF_FRAME":"TEME","PERIAPSIS":"432.044","OBJECT_ID":"2022-005F","PERIOD":"93.242","MEAN_ELEMENT_THEORY":"SGP4","BSTAR":"-0.00951720000000","APOAPSIS":"434.383","INCLINATION":"53.2174","MEAN_ANOMALY":"73.9422","FILE":"3407402","OBJECT_TYPE":"PAYLOAD","TLE_LINE1":"1 51109U 22005F   22108.91667824 -.00423114  00000-0 -95172-2 0  9994","MEAN_MOTION_DOT":"-0.00423114","DECAY_DATE":null,"CENTER_NAME":"EARTH","EPOCH":"2022-04-18T22:00:00.999936","MEAN_MOTION":"15.44376202","MEAN_MOTION_DDOT":"0.0000000000000","REV_AT_EPOCH":"367","ARG_OF_PERICENTER":"36.3224","COUNTRY_CODE":"US","ELEMENT_SET_NO":"999","NORAD_CAT_ID":"51109","SITE":"AFETR","RA_OF_ASC_NODE":"192.3487","ECCENTRICITY":"0.00017170","GP_ID":"201582228","OBJECT_NAME":"STARLINK-3358","SEMIMAJOR_AXIS":"6811.349","CLASSIFICATION_TYPE":"U","TIME_SYSTEM":"UTC","LAUNCH_DATE":"2022-01-19","EPHEMERIS_TYPE":"0"},{"MEAN_MOTION_DDOT":"0.0000000000000","MEAN_MOTION":"15.48947764","ELEMENT_SET_NO":"999","COUNTRY_CODE":"US","ARG_OF_PERICENTER":"28.8641","REV_AT_EPOCH":"369","MEAN_MOTION_DOT":"-0.00023628","TLE_LINE1":"1 51110U 22005G   22108.91667824 -.00023628  00000-0 -42343-3 0  9995","OBJECT_TYPE":"PAYLOAD","CENTER_NAME":"EARTH","EPOCH":"2022-04-18T22:00:00.999936","DECAY_DATE":null,"CLASSIFICATION_TYPE":"U","TIME_SYSTEM":"UTC","SEMIMAJOR_AXIS":"6797.940","OBJECT_NAME":"STARLINK-3344","GP_ID":"201580976","EPHEMERIS_TYPE":"0","LAUNCH_DATE":"2022-01-19","RA_OF_ASC_NODE":"191.5689","SITE":"AFETR","NORAD_CAT_ID":"51110","ECCENTRICITY":"0.00018170","PERIOD":"92.966","OBJECT_ID":"2022-005G","MEAN_ELEMENT_THEORY":"SGP4","TLE_LINE2":"2 51110  53.2161 191.5689 0001817  28.8641 212.5797 15.48947764  3699","RCS_SIZE":"LARGE","PERIAPSIS":"418.570","REF_FRAME":"TEME","MEAN_ANOMALY":"212.5797","FILE":"3407402","INCLINATION":"53.2161","APOAPSIS":"421.040","BSTAR":"-0.00042343000000"},{"MEAN_ELEMENT_THEORY":"SGP4","OBJECT_ID":"2022-005H","PERIOD":"92.984","REF_FRAME":"TEME","PERIAPSIS":"419.404","RCS_SIZE":"LARGE","TLE_LINE2":"2 51111  53.2166 191.5753 0001858  34.4867 126.7024 15.48653020  3660","FILE":"3407402","MEAN_ANOMALY":"126.7024","BSTAR":"-0.00334100000000","APOAPSIS":"421.931","INCLINATION":"53.2166","REV_AT_EPOCH":"366","ARG_OF_PERICENTER":"34.4867","COUNTRY_CODE":"US","ELEMENT_SET_NO":"999","MEAN_MOTION":"15.48653020","MEAN_MOTION_DDOT":"0.0000000000000","DECAY_DATE":null,"CENTER_NAME":"EARTH","EPOCH":"2022-04-18T22:00:00.999936","OBJECT_TYPE":"PAYLOAD","TLE_LINE1":"1 51111U 22005H   22108.91667824 -.00177954  00000-0 -33410-2 0  9992","MEAN_MOTION_DOT":"-0.00177954","LAUNCH_DATE":"2022-01-19","EPHEMERIS_TYPE":"0","GP_ID":"201581226","OBJECT_NAME":"STARLINK-3173","SEMIMAJOR_AXIS":"6798.803","CLASSIFICATION_TYPE":"U","TIME_SYSTEM":"UTC","ECCENTRICITY":"0.00018580","NORAD_CAT_ID":"51111","SITE":"AFETR","RA_OF_ASC_NODE":"191.5753"},{"PERIAPSIS":"418.399","REF_FRAME":"TEME","TLE_LINE2":"2 51112  53.2127 191.5943 0002024  40.9925  72.6996 15.48958190  3698","RCS_SIZE":"LARGE","MEAN_ELEMENT_THEORY":"SGP4","PERIOD":"92.966","OBJECT_ID":"2022-005J","INCLINATION":"53.2127","APOAPSIS":"421.150","BSTAR":"-0.00031727000000","FILE":"3407402","MEAN_ANOMALY":"72.6996","CENTER_NAME":"EARTH","EPOCH":"2022-04-18T22:00:00.999936","DECAY_DATE":null,"MEAN_MOTION_DOT":"-0.00017836","TLE_LINE1":"1 51112U 22005J   22108.91667824 -.00017836  00000-0 -31727-3 0  9995","OBJECT_TYPE":"PAYLOAD","ELEMENT_SET_NO":"999","COUNTRY_CODE":"US","ARG_OF_PERICENTER":"40.9925","REV_AT_EPOCH":"369","MEAN_MOTION_DDOT":"0.0000000000000","MEAN_MOTION":"15.48958190","ECCENTRICITY":"0.00020240","RA_OF_ASC_NODE":"191.5943","SITE":"AFETR","NORAD_CAT_ID":"51112","EPHEMERIS_TYPE":"0","LAUNCH_DATE":"2022-01-19","TIME_SYSTEM":"UTC","CLASSIFICATION_TYPE":"U","SEMIMAJOR_AXIS":"6797.909","OBJECT_NAME":"STARLINK-3374","GP_ID":"201582478"},{"MEAN_ELEMENT_THEORY":"SGP4","PERIOD":"92.985","OBJECT_ID":"2022-005K","PERIAPSIS":"419.622","REF_FRAME":"TEME","RCS_SIZE":"LARGE","TLE_LINE2":"2 51113  53.2173 191.5742 0001602  41.8122  95.2937 15.48638087  3693","FILE":"3407402","MEAN_ANOMALY":"95.2937","APOAPSIS":"421.800","BSTAR":"-0.01282200000000","INCLINATION":"53.2173","ARG_OF_PERICENTER":"41.8122","REV_AT_EPOCH":"369","ELEMENT_SET_NO":"999","COUNTRY_CODE":"US","MEAN_MOTION_DDOT":"0.0000000000000","MEAN_MOTION":"15.48638087","DECAY_DATE":null,"EPOCH":"2022-04-18T22:00:00.999936","CENTER_NAME":"EARTH","TLE_LINE1":"1 51113U 22005K   22108.91667824 -.00642396  00000-0 -12822-1 0  9994","OBJECT_TYPE":"PAYLOAD","MEAN_MOTION_DOT":"-0.00642396","EPHEMERIS_TYPE":"0","LAUNCH_DATE":"2022-01-19","OBJECT_NAME":"STARLINK-3372","GP_ID":"201582729","TIME_SYSTEM":"UTC","CLASSIFICATION_TYPE":"U","SEMIMAJOR_AXIS":"6798.846","ECCENTRICITY":"0.00016020","SITE":"AFETR","NORAD_CAT_ID":"51113","RA_OF_ASC_NODE":"191.5742"},{"INCLINATION":"53.2160","APOAPSIS":"421.136","BSTAR":"-0.00066575000000","MEAN_ANOMALY":"199.4019","FILE":"3407402","TLE_LINE2":"2 51114  53.2160 191.5704 0001961  34.1269 199.4019 15.48948385  3696","RCS_SIZE":"LARGE","PERIAPSIS":"418.470","REF_FRAME":"TEME","PERIOD":"92.966","OBJECT_ID":"2022-005L","MEAN_ELEMENT_THEORY":"SGP4","RA_OF_ASC_NODE":"191.5704","SITE":"AFETR","NORAD_CAT_ID":"51114","ECCENTRICITY":"0.00019610","TIME_SYSTEM":"UTC","CLASSIFICATION_TYPE":"U","SEMIMAJOR_AXIS":"6797.938","OBJECT_NAME":"STARLINK-3375","GP_ID":"201581477","EPHEMERIS_TYPE":"0","LAUNCH_DATE":"2022-01-19","MEAN_MOTION_DOT":"-0.00036835","TLE_LINE1":"1 51114U 22005L   22108.91667824 -.00036835  00000-0 -66575-3 0  9996","OBJECT_TYPE":"PAYLOAD","EPOCH":"2022-04-18T22:00:00.999936","CENTER_NAME":"EARTH","DECAY_DATE":null,"MEAN_MOTION_DDOT":"0.0000000000000","MEAN_MOTION":"15.48948385","ELEMENT_SET_NO":"999","COUNTRY_CODE":"US","ARG_OF_PERICENTER":"34.1269","REV_AT_EPOCH":"369"}];
